ONEWEB-0340             
1 49206U 21083W   26192.86926131  .00000074  00000+0  15587-3 0  9990
2 49206  87.9195 330.5474 0001906  92.1726 267.9624 13.18687466233229
ONEWEB-0341             
1 49207U 21083X   26192.80012477  .00000014  00000+0  32124-5 0  9996
2 49207  87.9172 330.5622 0002238  91.0803 269.0586 13.18687393233233
ONEWEB-0342             
1 49208U 21083Y   26192.74454730  .00006355  00000+0  15595-1 0  9995
2 49208  87.9154 269.5484 0001857 118.7670 241.3650 13.20740680240028
ONEWEB-0343             
1 49209U 21083Z   26192.80855964 -.00000009  00000+0 -55516-4 0  9999
2 49209  87.9182 330.5600 0002143 106.9984 253.1383 13.18687405233281
ONEWEB-0344             
1 49210U 21083AA  26192.80138122  .00000673  00000+0  18083-2 0  9992
2 49210  87.8974 315.3395 0002291  93.6448 266.4943 13.13474307234127
ONEWEB-0345             
1 49211U 21083AB  26192.86910640  .00000375  00000+0  99143-3 0  9998
2 49211  87.8993 315.3096 0002152 100.0503 260.0869 13.13469803234142
ONEWEB-0346             
1 49212U 21083AC  26192.80518648  .00000013  00000+0  13014-5 0  9999
2 49212  87.9185 330.5598 0001668  76.0181 284.1137 13.18687031233221
ONEWEB-0348             
1 49213U 21083AD  26192.65870289  .00000000  00000+0 -31785-4 0  9996
2 49213  87.9192 269.5654 0002234  84.0523 276.0865 13.20772122240048
ONEWEB-0350             
1 49214U 21083AE  26192.81168671  .00002381  00000+0  64851-2 0  9991
2 49214  87.8980 315.3278 0001585 124.9032 235.2247 13.13455211234168
ONEWEB-0351             
1 49215U 21083AF  26192.72757869 -.00000028  00000+0 -10006-3 0  9997
2 49215  87.9190 269.5501 0002674 104.9866 255.1564 13.20770066240015
ONEWEB-0352             
1 49216U 21083AG  26192.85894838  .00000223  00000+0  57475-3 0  9996
2 49216  87.8977 315.3224 0002213 107.5289 252.6082 13.13469607234262
ONEWEB-0354             
1 49217U 21083AH  26192.75465469 -.00000056  00000+0 -16924-3 0  9990
2 49217  87.9196 269.5421 0002115  96.9894 263.1480 13.20771420240050
ONEWEB-0355             
1 49218U 21083AJ  26190.29849357  .00000351  00000+0  92727-3 0  9991
2 49218  87.8970 315.8320 0002043 101.5704 258.5654 13.13300713233807
ONEWEB-0357             
1 49219U 21083AK  26192.75127650 -.00000158  00000+0 -42063-3 0  9995
2 49219  87.9189 269.5381 0002264 101.2633 258.8755 13.20769516240054
ONEWEB-0332             
1 49279U 21090A   26192.80467783 -.00000020  00000+0 -88923-4 0  9993
2 49279  87.8974 284.8018 0001904 128.1345 231.9956 13.14507397230814
ONEWEB-0347             
1 49280U 21090B   26192.74117852 -.00000045  00000+0 -14259-3 0  9994
2 49280  87.9186 269.5481 0001992 104.3801 255.7554 13.20769369234285
ONEWEB-0349             
1 49281U 21090C   26192.69740290 -.00000206  00000+0 -53974-3 0  9993
2 49281  87.9189 269.5580 0002166  98.7023 261.4356 13.20770533233069
ONEWEB-0353             
1 49282U 21090D   26192.79675526  .00000034  00000+0  57847-4 0  9995
2 49282  87.8973 284.8020 0001956 106.0140 254.1205 13.14501671230818
ONEWEB-0356             
1 49283U 21090E   26192.77148653  .00000052  00000+0  95469-4 0  9992
2 49283  87.9189 269.5361 0001358  86.5908 273.5381 13.20770096233074
ONEWEB-0358             
1 49284U 21090F   26192.73187332  .00000007  00000+0 -15925-4 0  9996
2 49284  87.9190 269.5514 0001694  96.0794 264.0532 13.20730588233793
ONEWEB-0359             
1 49285U 21090G   26192.72265831 -.00000044  00000+0 -14001-3 0  9992
2 49285  87.9189 269.5456 0002197  91.7697 268.3688 13.20769385233774
ONEWEB-0360             
1 49286U 21090H   26192.71257874  .00000112  00000+0  24239-3 0  9998
2 49286  87.9189 269.5541 0002219  97.4357 262.7028 13.20771298233087
ONEWEB-0361             
1 49287U 21090J   26192.76980362  .00000004  00000+0 -22550-4 0  9995
2 49287  87.9189 269.5412 0002089  94.5649 265.5723 13.20772198233546
ONEWEB-0362             
1 49288U 21090K   26192.81768971 -.00000001  00000+0 -33916-4 0  9998
2 49288  87.9184 300.0730 0002269 101.9773 258.1614 13.19725927230165
ONEWEB-0363             
1 49289U 21090L   26192.70920466  .00000048  00000+0  86700-4 0  9994
2 49289  87.9190 269.5533 0001834  93.9428 266.1915 13.20771839233540
ONEWEB-0364             
1 49290U 21090M   26192.74791240 -.00000086  00000+0 -24305-3 0  9992
2 49290  87.9187 269.5532 0002112  98.5354 261.6019 13.20769360234683
ONEWEB-0365             
1 49291U 21090N   26192.75134881 -.00000071  00000+0 -20876-3 0  9999
2 49291  87.9193 300.0765 0002060 101.4715 258.6649 13.19725822229667
ONEWEB-0366             
1 49292U 21090P   26192.71747019  .00000114  00000+0  27373-3 0  9994
2 49292  87.8972 284.8192 0002062  98.0341 262.1022 13.14501588230789
ONEWEB-0367             
1 49293U 21090Q   26192.70836051  .00000032  00000+0  46508-4 0  9990
2 49293  87.9189 269.5550 0002234 102.3335 257.8048 13.20772771233066
ONEWEB-0368             
1 49294U 21090R   26192.75803200 -.00000026  00000+0 -96167-4 0  9997
2 49294  87.9176 269.5527 0001530 113.6396 246.4898 13.20771299234227
